{"spkid": "50555676", "covariance": {"epoch": "2457583.5", "data": [["5.656590156518117E-15", "-1.792351059160633E-14", "-7.108810754939227E-12", "1.257011066436562E-12", "-4.106272427076013E-12", "2.259274004743738E-13"], ["-1.792351059160633E-14", "5.747312930633828E-14", "2.482124531884668E-11", "-4.074325561023355E-12", "1.384138201690747E-11", "-7.794286398145814E-13"], ["-7.108810754939227E-12", "2.482124531884668E-11", "1.705688161577631E-8", "-2.098652442021412E-9", "8.318476772016995E-9", "-5.103507499177056E-10"], ["1.257011066436562E-12", "-4.074325561023355E-12", "-2.098652442021412E-9", "4.745924436982468E-9", "-5.445118687408525E-9", "2.894380197979816E-10"], ["-4.106272427076013E-12", "1.384138201690747E-11", "8.318476772016995E-9", "-5.445118687408525E-9", "8.488853350572761E-9", "-4.716321995105675E-10"], ["2.259274004743738E-13", "-7.794286398145814E-13", "-5.103507499177056E-10", "2.894380197979816E-10", "-4.716321995105675E-10", "7.609321954617668E-11"]], "elements": [{"label": "e", "sigma": 7.52103061855097e-08, "name": "e", "units": null, "title": "eccentricity", "value": ".6387226632224796"}, {"units": "au", "title": "perihelion distance", "value": "1.022751711485569", "sigma": 2.39735540348815e-07, "name": "q", "label": "q"}, {"name": "tp", "sigma": 0.000130601996982344, "value": "2457302.284734779520", "title": "time of perihelion passage", "units": "TDB", "label": "tp"}, {"sigma": 6.88906701737069e-05, "name": "om", "units": "deg", "value": "79.26487747690014", "title": "longitude of the ascending node", "label": "node"}, {"label": "peri", "units": "deg", "title": "argument of perihelion", "value": "348.3385742611206", "sigma": 9.21349735473602e-05, "name": "w"}, {"label": "i", "title": "inclination", "value": "9.689135038408606", "units": "deg", "sigma": 8.72314275626489e-06, "name": "i"}], "labels": ["e", "q", "tp", "node", "peri", "i"]}, "elements": [{"units": null, "value": ".6453387939149717", "title": "eccentricity", "sigma": "8.3204E-8", "name": "e", "label": "e"}, {"sigma": "1.282E-7", "name": "a", "value": "2.811597689665857", "title": "semi-major axis", "units": "au", "label": "a"}, {"value": ".9971646276427719", "title": "perihelion distance", "units": "au", "sigma": "2.7089E-7", "name": "q", "label": "q"}, {"title": "inclination; angle with respect to x-y ecliptic plane", "value": "9.76965535493164", "units": "deg", "name": "i", "sigma": "9.0117E-6", "label": "i"}, {"units": "deg", "title": "longitude of the ascending node", "value": "79.0829973590797", "name": "om", "sigma": "6.8191E-5", "label": "node"}, {"label": "peri", "sigma": "9.0688E-5", "name": "w", "value": "348.6788132297919", "title": "argument of perihelion", "units": "deg"}, {"sigma": "7.7554E-5", "name": "ma", "title": "mean anomaly", "value": "91.86833396432854", "units": "deg", "label": "M"}, {"label": "tp", "sigma": ".00034094", "name": "tp", "value": "2460761.068148075739", "title": "time of perihelion passage", "units": "TDB"}, {"sigma": ".00011778", "name": "per", "units": "d", "value": "1721.980358914092", "title": "sidereal orbital period", "label": "period"}, {"label": "n", "units": "deg/d", "value": ".2090616180006964", "title": "mean motion", "sigma": "1.4299E-8", "name": "n"}, {"value": "4.626030751688942", "title": "aphelion distance", "units": "au", "sigma": "2.1093E-7", "name": "ad", "label": "Q"}], "epoch": "2461200.5"}